CCSDS_OMM_VERS = 2.0
CREATION_DATE  = 
ORIGINATOR     = 

OBJECT_NAME    = UNKNOWN
OBJECT_ID      = 
CENTER_NAME    = EARTH
REF_FRAME      = TEME
TIME_SYSTEM    = UTC
MEAN_ELEMENT_THEORY = SGP/SGP4

EPOCH          = 2025-12-16T21:53:00.385728
MEAN_MOTION    = 14.06953641
ECCENTRICITY   = .0085345
INCLINATION    = 98.7490
RA_OF_ASC_NODE = 232.9090
ARG_OF_PERICENTER = 26.7983
MEAN_ANOMALY   = 333.7558

EPHEMERIS_TYPE = 0
CLASSIFICATION_TYPE = U
NORAD_CAT_ID   = 81427
ELEMENT_SET_NO = 999
REV_AT_EPOCH   = 55235
BSTAR          = .4736E-3
MEAN_MOTION_DOT = .774E-5
MEAN_MOTION_DDOT = 0

CCSDS_OMM_VERS = 2.0
CREATION_DATE  = 
ORIGINATOR     = 

OBJECT_NAME    = UNKNOWN
OBJECT_ID      = 
CENTER_NAME    = EARTH
REF_FRAME      = TEME
TIME_SYSTEM    = UTC
MEAN_ELEMENT_THEORY = SGP/SGP4

EPOCH          = 2025-12-18T08:41:43.278144
MEAN_MOTION    = 13.54713051
ECCENTRICITY   = .0050224
INCLINATION    = 100.3149
RA_OF_ASC_NODE = 224.2915
ARG_OF_PERICENTER = 53.0236
MEAN_ANOMALY   = 307.5481

EPHEMERIS_TYPE = 0
CLASSIFICATION_TYPE = U
NORAD_CAT_ID   = 81438
ELEMENT_SET_NO = 999
REV_AT_EPOCH   = 59270
BSTAR          = .42152E-2
MEAN_MOTION_DOT = .2865E-4
MEAN_MOTION_DDOT = 0

CCSDS_OMM_VERS = 2.0
CREATION_DATE  = 
ORIGINATOR     = 

OBJECT_NAME    = UNKNOWN
OBJECT_ID      = 
CENTER_NAME    = EARTH
REF_FRAME      = TEME
TIME_SYSTEM    = UTC
MEAN_ELEMENT_THEORY = SGP/SGP4

EPOCH          = 2025-12-22T01:46:05.151936
MEAN_MOTION    = 12.62618521
ECCENTRICITY   = .0602866
INCLINATION    = 67.1596
RA_OF_ASC_NODE = 123.7460
ARG_OF_PERICENTER = 197.4653
MEAN_ANOMALY   = 160.4799

EPHEMERIS_TYPE = 0
CLASSIFICATION_TYPE = U
NORAD_CAT_ID   = 81439
ELEMENT_SET_NO = 999
REV_AT_EPOCH   = 26307
BSTAR          = .10181E-2
MEAN_MOTION_DOT = .317E-5
MEAN_MOTION_DDOT = 0

CCSDS_OMM_VERS = 2.0
CREATION_DATE  = 
ORIGINATOR     = 

OBJECT_NAME    = UNKNOWN
OBJECT_ID      = 
CENTER_NAME    = EARTH
REF_FRAME      = TEME
TIME_SYSTEM    = UTC
MEAN_ELEMENT_THEORY = SGP/SGP4

EPOCH          = 2025-12-20T07:57:08.117280
MEAN_MOTION    = 15.00776660
ECCENTRICITY   = .0018259
INCLINATION    = 66.7952
RA_OF_ASC_NODE = 329.6851
ARG_OF_PERICENTER = 114.2962
MEAN_ANOMALY   = 246.0082

EPHEMERIS_TYPE = 0
CLASSIFICATION_TYPE = U
NORAD_CAT_ID   = 81449
ELEMENT_SET_NO = 999
REV_AT_EPOCH   = 63469
BSTAR          = .35303E-2
MEAN_MOTION_DOT = .45252E-3
MEAN_MOTION_DDOT = 0

CCSDS_OMM_VERS = 2.0
CREATION_DATE  = 
ORIGINATOR     = 

OBJECT_NAME    = UNKNOWN
OBJECT_ID      = 
CENTER_NAME    = EARTH
REF_FRAME      = TEME
TIME_SYSTEM    = UTC
MEAN_ELEMENT_THEORY = SGP/SGP4

EPOCH          = 2025-12-21T17:15:19.091808
MEAN_MOTION    = 14.28289888
ECCENTRICITY   = .0146965
INCLINATION    = 98.9518
RA_OF_ASC_NODE = 267.8468
ARG_OF_PERICENTER = 332.8521
MEAN_ANOMALY   = 54.8556

EPHEMERIS_TYPE = 0
CLASSIFICATION_TYPE = U
NORAD_CAT_ID   = 81478
ELEMENT_SET_NO = 999
REV_AT_EPOCH   = 62422
BSTAR          = .1572E-2
MEAN_MOTION_DOT = .4356E-4
MEAN_MOTION_DDOT = 0

CCSDS_OMM_VERS = 2.0
CREATION_DATE  = 
ORIGINATOR     = 

OBJECT_NAME    = UNKNOWN
OBJECT_ID      = 
CENTER_NAME    = EARTH
REF_FRAME      = TEME
TIME_SYSTEM    = UTC
MEAN_ELEMENT_THEORY = SGP/SGP4

EPOCH          = 2025-12-21T11:13:05.178720
MEAN_MOTION    = 13.56523593
ECCENTRICITY   = .004465
INCLINATION    = 100.0001
RA_OF_ASC_NODE = 228.2561
ARG_OF_PERICENTER = 338.7131
MEAN_ANOMALY   = 145.2445

EPHEMERIS_TYPE = 0
CLASSIFICATION_TYPE = U
NORAD_CAT_ID   = 81488
ELEMENT_SET_NO = 999
REV_AT_EPOCH   = 59781
BSTAR          = .23562E-3
MEAN_MOTION_DOT = .121E-5
MEAN_MOTION_DDOT = 0

CCSDS_OMM_VERS = 2.0
CREATION_DATE  = 
ORIGINATOR     = 

OBJECT_NAME    = UNKNOWN
OBJECT_ID      = 
CENTER_NAME    = EARTH
REF_FRAME      = TEME
TIME_SYSTEM    = UTC
MEAN_ELEMENT_THEORY = SGP/SGP4

EPOCH          = 2025-12-21T11:21:36.080064
MEAN_MOTION    = 13.84216844
ECCENTRICITY   = .0029866
INCLINATION    = 100.3017
RA_OF_ASC_NODE = 250.9639
ARG_OF_PERICENTER = 353.2055
MEAN_ANOMALY   = 187.1021

EPHEMERIS_TYPE = 0
CLASSIFICATION_TYPE = U
NORAD_CAT_ID   = 81497
ELEMENT_SET_NO = 999
REV_AT_EPOCH   = 21750
BSTAR          = .29581E-2
MEAN_MOTION_DOT = .3261E-4
MEAN_MOTION_DDOT = 0

CCSDS_OMM_VERS = 2.0
CREATION_DATE  = 
ORIGINATOR     = 

OBJECT_NAME    = UNKNOWN
OBJECT_ID      = 
CENTER_NAME    = EARTH
REF_FRAME      = TEME
TIME_SYSTEM    = UTC
MEAN_ELEMENT_THEORY = SGP/SGP4

EPOCH          = 2025-12-21T00:00:33.029856
MEAN_MOTION    = 14.47157977
ECCENTRICITY   = .000172
INCLINATION    = 74.0474
RA_OF_ASC_NODE = 205.6385
ARG_OF_PERICENTER = 282.2998
MEAN_ANOMALY   = 77.7968

EPHEMERIS_TYPE = 0
CLASSIFICATION_TYPE = U
NORAD_CAT_ID   = 81499
ELEMENT_SET_NO = 999
REV_AT_EPOCH   = 48361
BSTAR          = .44527E-3
MEAN_MOTION_DOT = .1598E-4
MEAN_MOTION_DDOT = 0

CCSDS_OMM_VERS = 2.0
CREATION_DATE  = 
ORIGINATOR     = 

OBJECT_NAME    = UNKNOWN
OBJECT_ID      = 
CENTER_NAME    = EARTH
REF_FRAME      = TEME
TIME_SYSTEM    = UTC
MEAN_ELEMENT_THEORY = SGP/SGP4

EPOCH          = 2025-12-20T12:08:39.033312
MEAN_MOTION    = 14.13458681
ECCENTRICITY   = .0236184
INCLINATION    = 98.2017
RA_OF_ASC_NODE = 76.0929
ARG_OF_PERICENTER = 126.2127
MEAN_ANOMALY   = 236.1137

EPHEMERIS_TYPE = 0
CLASSIFICATION_TYPE = U
NORAD_CAT_ID   = 81535
ELEMENT_SET_NO = 999
REV_AT_EPOCH   = 38849
BSTAR          = .39083E-3
MEAN_MOTION_DOT = .921E-5
MEAN_MOTION_DDOT = 0

CCSDS_OMM_VERS = 2.0
CREATION_DATE  = 
ORIGINATOR     = 

OBJECT_NAME    = UNKNOWN
OBJECT_ID      = 
CENTER_NAME    = EARTH
REF_FRAME      = TEME
TIME_SYSTEM    = UTC
MEAN_ELEMENT_THEORY = SGP/SGP4

EPOCH          = 2025-12-20T20:35:32.803584
MEAN_MOTION    = 12.55877510
ECCENTRICITY   = .0033399
INCLINATION    = 101.9591
RA_OF_ASC_NODE = 216.0183
ARG_OF_PERICENTER = 280.8326
MEAN_ANOMALY   = 102.4441

EPHEMERIS_TYPE = 0
CLASSIFICATION_TYPE = U
NORAD_CAT_ID   = 81536
ELEMENT_SET_NO = 999
REV_AT_EPOCH   = 55283
BSTAR          = .31058E-2
MEAN_MOTION_DOT = .465E-5
MEAN_MOTION_DDOT = 0

CCSDS_OMM_VERS = 2.0
CREATION_DATE  = 
ORIGINATOR     = 

OBJECT_NAME    = UNKNOWN
OBJECT_ID      = 
CENTER_NAME    = EARTH
REF_FRAME      = TEME
TIME_SYSTEM    = UTC
MEAN_ELEMENT_THEORY = SGP/SGP4

EPOCH          = 2025-12-20T23:56:32.471520
MEAN_MOTION    = 14.07096747
ECCENTRICITY   = .0075584
INCLINATION    = 71.0398
RA_OF_ASC_NODE = 92.1654
ARG_OF_PERICENTER = 141.4357
MEAN_ANOMALY   = 219.2196

EPHEMERIS_TYPE = 0
CLASSIFICATION_TYPE = U
NORAD_CAT_ID   = 81537
ELEMENT_SET_NO = 999
REV_AT_EPOCH   = 62162
BSTAR          = .65885E-4
MEAN_MOTION_DOT = .67E-6
MEAN_MOTION_DDOT = 0

CCSDS_OMM_VERS = 2.0
CREATION_DATE  = 
ORIGINATOR     = 

OBJECT_NAME    = UNKNOWN
OBJECT_ID      = 
CENTER_NAME    = EARTH
REF_FRAME      = TEME
TIME_SYSTEM    = UTC
MEAN_ELEMENT_THEORY = SGP/SGP4

EPOCH          = 2025-12-15T12:20:40.257312
MEAN_MOTION    = 13.18182296
ECCENTRICITY   = .0259238
INCLINATION    = 99.0653
RA_OF_ASC_NODE = 275.7867
ARG_OF_PERICENTER = 11.5492
MEAN_ANOMALY   = 349.1424

EPHEMERIS_TYPE = 0
CLASSIFICATION_TYPE = U
NORAD_CAT_ID   = 81552
ELEMENT_SET_NO = 999
REV_AT_EPOCH   = 57961
BSTAR          = .24303E-2
MEAN_MOTION_DOT = .1096E-4
MEAN_MOTION_DDOT = 0

