UNKNOWN                 
1 81427U          25350.91181002  .00000774  00000+0  47360-3 0  9999
2 81427  98.7490 232.9090 0085345  26.7983 333.7558 14.06953641552359
UNKNOWN                 
1 81438U          25352.36230646  .00002865  00000+0  42152-2 0  9997
2 81438 100.3149 224.2915 0050224  53.0236 307.5481 13.54713051592702
UNKNOWN                 
1 81439U          25356.07367074  .00000317  00000+0  10181-2 0  9993
2 81439  67.1596 123.7460 0602866 197.4653 160.4799 12.62618521263075
UNKNOWN                 
1 81449U          25354.33134395  .00045252  00000+0  35303-2 0  9999
2 81449  66.7952 329.6851 0018259 114.2962 246.0082 15.00776660634695
UNKNOWN                 
1 81478U          25355.71897097  .00004356  00000+0  15720-2 0  9990
2 81478  98.9518 267.8468 0146965 332.8521  54.8556 14.28289888624223
UNKNOWN                 
1 81488U          25355.46742105  .00000121  00000+0  23562-3 0  9992
2 81488 100.0001 228.2561 0044650 338.7131 145.2445 13.56523593597811
UNKNOWN                 
1 81497U          25355.47333426  .00003261  00000+0  29581-2 0  9999
2 81497 100.3017 250.9639 0029866 353.2055 187.1021 13.84216844217507
UNKNOWN                 
1 81499U          25355.00038229  .00001598  00000+0  44527-3 0  9992
2 81499  74.0474 205.6385 0001720 282.2998  77.7968 14.47157977483616
UNKNOWN                 
1 81535U          25354.50600733  .00000921  00000+0  39083-3 0  9992
2 81535  98.2017  76.0929 0236184 126.2127 236.1137 14.13458681388495
UNKNOWN                 
1 81536U          25354.85801856  .00000465  00000+0  31058-2 0  9996
2 81536 101.9591 216.0183 0033399 280.8326 102.4441 12.55877510552838
UNKNOWN                 
1 81537U          25354.99759805  .00000067  00000+0  65885-4 0  9993
2 81537  71.0398  92.1654 0075584 141.4357 219.2196 14.07096747621627
UNKNOWN                 
1 81552U          25349.51435483  .00001096  00000+0  24303-2 0  9996
2 81552  99.0653 275.7867 0259238  11.5492 349.1424 13.18182296579614
